{
  "type": "FeatureCollection",
  "features": [
    {
      "type": "Feature",
      "properties": {
        "norad_id": 36036,
        "name": "SMOS",
        "group": "resource",
        "lat": 47.30220965800865,
        "lon": 8.799297667362104,
        "alt_km": 754.62444669241,
        "timestamp": "2025-12-20T14:38:01.615223+00:00",
        "meta_object_name": "SMOS",
        "meta_object_id": "2009-059A",
        "meta_epoch": "2025-12-20T02:20:51.634176",
        "meta_mean_motion": 14.39747368,
        "meta_eccentricity": 0.00010832,
        "meta_inclination": 98.438,
        "meta_ra_of_asc_node": 179.0374,
        "meta_arg_of_pericenter": 83.3735,
        "meta_mean_anomaly": 276.7577,
        "meta_ephemeris_type": 0,
        "meta_classification_type": "U",
        "meta_norad_cat_id": 36036,
        "meta_element_set_no": 999,
        "meta_rev_at_epoch": 84768,
        "meta_bstar": 0.00010328631,
        "meta_mean_motion_dot": 2.8e-06,
        "meta_mean_motion_ddot": 0,
        "tle_line1": "1 36036U 09059A   25354.09781984  .00000280  00000+0  10329-3 0  9993",
        "tle_line2": "2 36036  98.4380 179.0374 0001083  83.3735 276.7577 14.39747368847680"
      },
      "geometry": {
        "type": "Point",
        "coordinates": [
          8.799297667362104,
          47.30220965800865
        ]
      }
    },
    {
      "type": "Feature",
      "properties": {
        "norad_id": 36110,
        "name": "YAOGAN-7",
        "group": "resource",
        "lat": -47.677108511017714,
        "lon": -114.74427757796893,
        "alt_km": 634.4018285389766,
        "timestamp": "2025-12-20T14:38:01.615233+00:00",
        "meta_object_name": "YAOGAN-7",
        "meta_object_id": "2009-069A",
        "meta_epoch": "2025-12-20T03:28:34.501728",
        "meta_mean_motion": 14.77742358,
        "meta_eccentricity": 0.00233621,
        "meta_inclination": 98.0296,
        "meta_ra_of_asc_node": 235.8752,
        "meta_arg_of_pericenter": 256.0159,
        "meta_mean_anomaly": 103.8453,
        "meta_ephemeris_type": 0,
        "meta_classification_type": "U",
        "meta_norad_cat_id": 36110,
        "meta_element_set_no": 999,
        "meta_rev_at_epoch": 86318,
        "meta_bstar": 6.7749199e-05,
        "meta_mean_motion_dot": 4.34e-06,
        "meta_mean_motion_ddot": 0,
        "tle_line1": "1 36110U 09069A   25354.14484377  .00000434  00000+0  67749-4 0  9999",
        "tle_line2": "2 36110  98.0296 235.8752 0023362 256.0159 103.8453 14.77742358863181"
      },
      "geometry": {
        "type": "Point",
        "coordinates": [
          -114.74427757796893,
          -47.677108511017714
        ]
      }
    },
    {
      "type": "Feature",
      "properties": {
        "norad_id": 36605,
        "name": "TANDEM-X",
        "group": "resource",
        "lat": -70.1995389035164,
        "lon": 21.17065301936573,
        "alt_km": 516.7388238599342,
        "timestamp": "2025-12-20T14:38:01.615243+00:00",
        "meta_object_name": "TANDEM-X",
        "meta_object_id": "2010-030A",
        "meta_epoch": "2025-12-19T12:04:27.806304",
        "meta_mean_motion": 15.19152689,
        "meta_eccentricity": 0.0001806,
        "meta_inclination": 97.4444,
        "meta_ra_of_asc_node": 358.7845,
        "meta_arg_of_pericenter": 78.9569,
        "meta_mean_anomaly": 281.1868,
        "meta_ephemeris_type": 0,
        "meta_classification_type": "U",
        "meta_norad_cat_id": 36605,
        "meta_element_set_no": 999,
        "meta_rev_at_epoch": 85936,
        "meta_bstar": 3.4902e-05,
        "meta_mean_motion_dot": 6.66e-06,
        "meta_mean_motion_ddot": 0,
        "tle_line1": "1 36605U 10030A   25353.50309961  .00000666  00000+0  34902-4 0  9994",
        "tle_line2": "2 36605  97.4444 358.7845 0001806  78.9569 281.1868 15.19152689859365"
      },
      "geometry": {
        "type": "Point",
        "coordinates": [
          21.17065301936573,
          -70.1995389035164
        ]
      }
    },
    {
      "type": "Feature",
      "properties": {
        "norad_id": 36795,
        "name": "CARTOSAT-2B",
        "group": "resource",
        "lat": -81.58097180579887,
        "lon": 155.82124802100083,
        "alt_km": 648.1598116552232,
        "timestamp": "2025-12-20T14:38:01.615253+00:00",
        "meta_object_name": "CARTOSAT-2B",
        "meta_object_id": "2010-035A",
        "meta_epoch": "2025-12-20T06:56:05.917632",
        "meta_mean_motion": 14.78733483,
        "meta_eccentricity": 0.00127996,
        "meta_inclination": 97.7847,
        "meta_ra_of_asc_node": 43.0744,
        "meta_arg_of_pericenter": 54.2749,
        "meta_mean_anomaly": 305.9651,
        "meta_ephemeris_type": 0,
        "meta_classification_type": "U",
        "meta_norad_cat_id": 36795,
        "meta_element_set_no": 999,
        "meta_rev_at_epoch": 83341,
        "meta_bstar": 3.6243966e-05,
        "meta_mean_motion_dot": 2.16e-06,
        "meta_mean_motion_ddot": 0,
        "tle_line1": "1 36795U 10035A   25354.28895738  .00000216  00000+0  36244-4 0  9999",
        "tle_line2": "2 36795  97.7847  43.0744 0012799  54.2749 305.9651 14.78733483833411"
      },
      "geometry": {
        "type": "Point",
        "coordinates": [
          155.82124802100083,
          -81.58097180579887
        ]
      }
    },
    {
      "type": "Feature",
      "properties": {
        "norad_id": 36834,
        "name": "YAOGAN-10",
        "group": "resource",
        "lat": 25.766720525049678,
        "lon": -161.778276200583,
        "alt_km": 613.6723709952648,
        "timestamp": "2025-12-20T14:38:01.615264+00:00",
        "meta_object_name": "YAOGAN-10",
        "meta_object_id": "2010-038A",
        "meta_epoch": "2025-12-20T07:43:44.255136",
        "meta_mean_motion": 14.84635511,
        "meta_eccentricity": 0.00014367,
        "meta_inclination": 97.9134,
        "meta_ra_of_asc_node": 14.0864,
        "meta_arg_of_pericenter": 78.4028,
        "meta_mean_anomaly": 338.7117,
        "meta_ephemeris_type": 0,
        "meta_classification_type": "U",
        "meta_norad_cat_id": 36834,
        "meta_element_set_no": 999,
        "meta_rev_at_epoch": 83066,
        "meta_bstar": 0.00018419069,
        "meta_mean_motion_dot": 1.503e-05,
        "meta_mean_motion_ddot": 0,
        "tle_line1": "1 36834U 10038A   25354.32203999  .00001503  00000+0  18419-3 0  9996",
        "tle_line2": "2 36834  97.9134  14.0864 0001436  78.4028 338.7117 14.84635511830666"
      },
      "geometry": {
        "type": "Point",
        "coordinates": [
          -161.778276200583,
          25.766720525049678
        ]
      }
    },
    {
      "type": "Feature",
      "properties": {
        "norad_id": 37216,
        "name": "COSMO-SKYMED 4",
        "group": "resource",
        "lat": 6.883866657926405,
        "lon": 174.85564005081702,
        "alt_km": 624.3877489072611,
        "timestamp": "2025-12-20T14:38:01.615274+00:00",
        "meta_object_name": "COSMO-SKYMED 4",
        "meta_object_id": "2010-060A",
        "meta_epoch": "2025-12-20T06:30:04.474368",
        "meta_mean_motion": 14.82153365,
        "meta_eccentricity": 0.00014045,
        "meta_inclination": 97.8798,
        "meta_ra_of_asc_node": 175.4801,
        "meta_arg_of_pericenter": 84.6872,
        "meta_mean_anomaly": 275.4502,
        "meta_ephemeris_type": 0,
        "meta_classification_type": "U",
        "meta_norad_cat_id": 37216,
        "meta_element_set_no": 999,
        "meta_rev_at_epoch": 81806,
        "meta_bstar": 7.7011404e-05,
        "meta_mean_motion_dot": 5.61e-06,
        "meta_mean_motion_ddot": 0,
        "tle_line1": "1 37216U 10060A   25354.27088512  .00000561  00000+0  77011-4 0  9999",
        "tle_line2": "2 37216  97.8798 175.4801 0001404  84.6872 275.4502 14.82153365818065"
      },
      "geometry": {
        "type": "Point",
        "coordinates": [
          174.85564005081702,
          6.883866657926405
        ]
      }
    },
    {
      "type": "Feature",
      "properties": {
        "norad_id": 37387,
        "name": "RESOURCESAT-2",
        "group": "resource",
        "lat": 58.26787339910819,
        "lon": 43.64140750205756,
        "alt_km": 810.8403239333338,
        "timestamp": "2025-12-20T14:38:01.615285+00:00",
        "meta_object_name": "RESOURCESAT-2",
        "meta_object_id": "2011-015A",
        "meta_epoch": "2025-12-20T04:13:14.196864",
        "meta_mean_motion": 14.21600026,
        "meta_eccentricity": 0.00060821,
        "meta_inclination": 98.7867,
        "meta_ra_of_asc_node": 57.694,
        "meta_arg_of_pericenter": 22.6144,
        "meta_mean_anomaly": 337.53,
        "meta_ephemeris_type": 0,
        "meta_classification_type": "U",
        "meta_norad_cat_id": 37387,
        "meta_element_set_no": 999,
        "meta_rev_at_epoch": 76074,
        "meta_bstar": 6.661258e-05,
        "meta_mean_motion_dot": 1.02e-06,
        "meta_mean_motion_ddot": 0,
        "tle_line1": "1 37387U 11015A   25354.17585876  .00000102  00000+0  66613-4 0  9990",
        "tle_line2": "2 37387  98.7867  57.6940 0006082  22.6144 337.5300 14.21600026760748"
      },
      "geometry": {
        "type": "Point",
        "coordinates": [
          43.64140750205756,
          58.26787339910819
        ]
      }
    }
  ]
}